[{"OBJECT_NAME":"STARLINK-3054","OBJECT_ID":"2021-082AP","EPOCH":"2026-03-09T22:20:32.440992","MEAN_MOTION":14.98330582,"ECCENTRICITY":0.00026696,"INCLINATION":69.999,"RA_OF_ASC_NODE":293.8403,"ARG_OF_PERICENTER":269.1801,"MEAN_ANOMALY":90.9052,"EPHEMERIS_TYPE":0,"CLASSIFICATION_TYPE":"U","NORAD_CAT_ID":49167,"ELEMENT_SET_NO":999,"REV_AT_EPOCH":24721,"BSTAR":-2.0115793e-5,"MEAN_MOTION_DOT":-3.33e-6,"MEAN_MOTION_DDOT":0},{"OBJECT_NAME":"BRO-15","OBJECT_ID":"2024-149CP","EPOCH":"2026-03-09T18:52:33.918816","MEAN_MOTION":14.95892184,"ECCENTRICITY":0.00093198,"INCLINATION":97.6864,"RA_OF_ASC_NODE":146.0377,"ARG_OF_PERICENTER":65.4416,"MEAN_ANOMALY":294.7775,"EPHEMERIS_TYPE":0,"CLASSIFICATION_TYPE":"U","NORAD_CAT_ID":60553,"ELEMENT_SET_NO":999,"REV_AT_EPOCH":8514,"BSTAR":7.8021491e-5,"MEAN_MOTION_DOT":8.16e-6,"MEAN_MOTION_DDOT":0}]
